NORAD_CAT_ID,OBJECT_NAME,OBJECT_TYPE,EPOCH,MEAN_MOTION,ECCENTRICITY,INCLINATION,RA_OF_ASC_NODE,ARG_OF_PERICENTER,MEAN_ANOMALY,BSTAR,MEAN_MOTION_DOT,MEAN_MOTION_DDOT,TLE_LINE0,TLE_LINE1,TLE_LINE2,SEMIMAJOR_AXIS,PERIOD,APOGEE,PERIGEE,DECAYED
50840.0,STARLINK-3295,PAYLOAD,2024-05-26 13:06:33,15.08834755,0.0001397,53.2169,226.7045,136.6413,223.4689,-0.00011978,-2.193e-05,0.0,0 STARLINK-3295,1 50840U 22001AP  24147.54622607 -.00002193  00000-0 -11978-3 0  9998,2 50840  53.2169 226.7045 0001397 136.6413 223.4689 15.08834755133091,6917.896,95.438,540.728,538.795,0.0
50840.0,STARLINK-3295,PAYLOAD,2024-05-26 14:41:56,15.0884738,0.0001186,53.2169,226.4077,110.1441,249.9679,8.9377e-05,1.135e-05,0.0,0 STARLINK-3295,1 50840U 22001AP  24147.61246134  .00001135  00000-0  89377-4 0  9995,2 50840  53.2169 226.4077 0001186 110.1441 249.9679 15.08847380131815,6917.858,95.437,540.543,538.902,0.0
50840.0,STARLINK-3295,PAYLOAD,2024-05-26 22:38:52,15.08842372,0.0001274,53.217,224.9184,119.498,240.6139,2.7731e-05,1.54e-06,0.0,0 STARLINK-3295,1 50840U 22001AP  24147.94366320  .00000154  00000-0  27731-4 0  9997,2 50840  53.2170 224.9184 0001274 119.4980 240.6139 15.08842372131867,6917.873,95.437,540.619,538.857,0.0
50840.0,STARLINK-3295,PAYLOAD,2024-05-27 11:21:58,15.08840114,0.0001986,53.218,222.5373,60.038,300.0809,9.214e-05,1.179e-05,0.0,0 STARLINK-3295,1 50840U 22001AP  24148.47358917  .00001179  00000-0  92140-4 0  9993,2 50840  53.2180 222.5373 0001986  60.0380 300.0809 15.08840114133237,6917.88,95.438,541.119,538.371,0.0
50840.0,STARLINK-3295,PAYLOAD,2024-05-28 11:12:44,15.08849366,0.000124,53.2169,218.0805,88.499,271.6144,5.8342e-05,6.41e-06,0.0,0 STARLINK-3295,1 50840U 22001AP  24149.46718038  .00000641  00000-0  58342-4 0  9996,2 50840  53.2169 218.0805 0001240  88.4990 271.6144 15.08849366133387,6917.852,95.437,540.575,538.859,0.0
50840.0,STARLINK-3295,PAYLOAD,2024-05-29 09:28:08,15.08839831,0.0001375,53.2174,213.9243,85.7023,274.4127,3.3089e-05,2.39e-06,0.0,0 STARLINK-3295,1 50840U 22001AP  24150.39454643  .00000239  00000-0  33089-4 0  9993,2 50840  53.2174 213.9243 0001375  85.7023 274.4127 15.08839831133523,6917.881,95.438,540.697,538.795,0.0
50840.0,STARLINK-3295,PAYLOAD,2024-05-30 04:32:46,15.08808098,0.0001563,53.2173,210.3564,74.8178,285.2987,0.00048608,7.45e-05,0.0,0 STARLINK-3295,1 50840U 22001AP  24151.18943000  .00007450  00000-0  48608-3 0  9995,2 50840  53.2173 210.3564 0001563  74.8178 285.2987 15.08808098133646,6917.978,95.44,540.924,538.762,0.0
50840.0,STARLINK-3295,PAYLOAD,2024-05-30 10:54:18,15.08843288,0.000146,53.2174,209.165,91.8518,268.2641,6.5561e-05,7.56e-06,0.0,0 STARLINK-3295,1 50840U 22001AP  24151.45438273  .00000756  00000-0  65561-4 0  9996,2 50840  53.2174 209.1650 0001460  91.8518 268.2641 15.08843288133684,6917.87,95.437,540.745,538.725,0.0
50840.0,STARLINK-3295,PAYLOAD,2024-05-31 04:23:33,15.08835911,0.0001589,53.2175,205.8925,95.4341,264.6833,6.4382e-05,7.37e-06,0.0,0 STARLINK-3295,1 50840U 22001AP  24152.18302829  .00000737  00000-0  64382-4 0  9993,2 50840  53.2175 205.8925 0001589  95.4341 264.6833 15.08835911133798,6917.893,95.438,540.857,538.659,0.0
50840.0,STARLINK-3295,PAYLOAD,2024-05-31 13:55:52,15.08837139,0.0001562,53.2174,204.1077,95.1464,264.9707,6.3974e-05,7.3e-06,0.0,0 STARLINK-3295,1 50840U 22001AP  24152.58046851  .00000730  00000-0  63974-4 0  9996,2 50840  53.2174 204.1077 0001562  95.1464 264.9707 15.08837139132562,6917.889,95.438,540.835,538.674,0.0
50840.0,STARLINK-3295,PAYLOAD,2024-05-31 20:17:25,15.08837994,0.0001544,53.218,202.9197,91.4054,268.7115,-1.4448e-05,-5.18e-06,0.0,0 STARLINK-3295,1 50840U 22001AP  24152.84543022 -.00000518  00000-0 -14448-4 0  9995,2 50840  53.2180 202.9197 0001544  91.4054 268.7115 15.08837994132601,6917.887,95.438,540.82,538.683,0.0
50840.0,STARLINK-3295,PAYLOAD,2024-06-01 10:35:53,15.08842084,0.000144,53.2166,200.2432,89.1007,271.015,4.7844e-05,4.74e-06,0.0,0 STARLINK-3295,1 50840U 22001AP  24153.44158679  .00000474  00000-0  47844-4 0  9997,2 50840  53.2166 200.2432 0001440  89.1007 271.0150 15.08842084133989,6917.874,95.437,540.735,538.743,0.0
50840.0,STARLINK-3295,PAYLOAD,2024-06-01 13:46:39,15.0884335,0.0001445,53.2166,199.6485,88.9666,271.1492,5.7353e-05,6.25e-06,0.0,0 STARLINK-3295,1 50840U 22001AP  24153.57406572  .00000625  00000-0  57353-4 0  9993,2 50840  53.2166 199.6485 0001445  88.9666 271.1492 15.08843350132718,6917.87,95.437,540.735,538.736,0.0
50840.0,STARLINK-3295,PAYLOAD,2024-06-02 10:26:40,15.08835342,0.0001383,53.2163,195.7816,86.8152,273.2998,4.1024e-05,3.65e-06,0.0,0 STARLINK-3295,1 50840U 22001AP  24154.43519384  .00000365  00000-0  41024-4 0  9994,2 50840  53.2163 195.7816 0001383  86.8152 273.2998 15.08835342134132,6917.895,95.438,540.716,538.803,0.0
50840.0,STARLINK-3295,PAYLOAD,2024-06-02 19:58:59,15.08836301,0.0001383,53.2163,193.997,86.1719,273.9431,4.6246e-05,4.48e-06,0.0,0 STARLINK-3295,1 50840U 22001AP  24154.83263419  .00000448  00000-0  46246-4 0  9996,2 50840  53.2163 193.9970 0001383  86.1719 273.9431 15.08836301132903,6917.892,95.438,540.713,538.8,0.0
50840.0,STARLINK-3295,PAYLOAD,2024-06-03 08:42:04,15.08839906,0.0001363,53.2158,191.6178,87.5527,272.5621,6.9814e-05,8.23e-06,0.0,0 STARLINK-3295,1 50840U 22001AP  24155.36255269  .00000823  00000-0  69814-4 0  9992,2 50840  53.2158 191.6178 0001363  87.5527 272.5621 15.08839906132980,6917.881,95.438,540.689,538.803,0.0
50840.0,STARLINK-3295,PAYLOAD,2024-06-04 02:11:18,15.08842481,0.0001334,53.216,188.3468,87.676,272.4385,0.00011401,1.527e-05,0.0,0 STARLINK-3295,1 50840U 22001AP  24156.09118968  .00001527  00000-0  11401-3 0  9997,2 50840  53.2160 188.3468 0001334  87.6760 272.4385 15.08842481134380,6917.873,95.437,540.661,538.815,0.0
50840.0,STARLINK-3295,PAYLOAD,2024-06-04 08:32:51,15.08845691,0.0001316,53.2158,187.1572,88.3924,271.7219,0.00014698,2.052e-05,0.0,0 STARLINK-3295,1 50840U 22001AP  24156.35614686  .00002052  00000-0  14698-3 0  9999,2 50840  53.2158 187.1572 0001316  88.3924 271.7219 15.08845691133136,6917.863,95.437,540.638,538.818,0.0
50840.0,STARLINK-3295,PAYLOAD,2024-06-04 19:40:32,15.0884608,0.0001306,53.2157,185.0762,86.6702,273.4439,0.00011999,1.623e-05,0.0,0 STARLINK-3295,1 50840U 22001AP  24156.81982627  .00001623  00000-0  11999-3 0  9997,2 50840  53.2157 185.0762 0001306  86.6702 273.4439 15.08846080133201,6917.862,95.437,540.63,538.823,0.0
50840.0,STARLINK-3295,PAYLOAD,2024-06-05 05:12:52,15.08843083,0.0001525,53.2171,183.2921,95.5428,264.5738,6.2981e-05,7.15e-06,0.0,0 STARLINK-3295,1 50840U 22001AP  24157.21726927  .00000715  00000-0  62981-4 0  9990,2 50840  53.2171 183.2921 0001525  95.5428 264.5738 15.08843083134553,6917.871,95.437,540.791,538.681,0.0
50840.0,STARLINK-3295,PAYLOAD,2024-06-05 06:48:15,15.08841703,0.0001498,53.2169,182.9947,94.6683,265.448,5.1926e-05,5.39e-06,0.0,0 STARLINK-3295,1 50840U 22001AP  24157.28351026  .00000539  00000-0  51926-4 0  9992,2 50840  53.2169 182.9947 0001498  94.6683 265.4480 15.08841703133275,6917.875,95.437,540.776,538.704,0.0
50840.0,STARLINK-3295,PAYLOAD,2024-06-06 05:03:39,15.08837335,0.000147,53.2165,178.8317,94.6315,265.4845,-3.0702e-05,-7.77e-06,0.0,0 STARLINK-3295,1 50840U 22001AP  24158.21087518 -.00000777  00000-0 -30702-4 0  9993,2 50840  53.2165 178.8317 0001470  94.6315 265.4845 15.08837335134708,6917.889,95.438,540.77,538.737,0.0
50840.0,STARLINK-3295,PAYLOAD,2024-06-06 08:14:25,15.08837652,0.000146,53.2167,178.2369,94.6275,265.4884,-3.4233e-05,-8.33e-06,0.0,0 STARLINK-3295,1 50840U 22001AP  24158.34335486 -.00000833  00000-0 -34233-4 0  9993,2 50840  53.2167 178.2369 0001460  94.6275 265.4884 15.08837652133439,6917.888,95.438,540.763,538.743,0.0
50840.0,STARLINK-3295,PAYLOAD,2024-06-07 08:05:12,15.08839152,0.0001334,53.2167,173.7766,92.9886,267.1258,5.4858e-05,5.85e-06,0.0,0 STARLINK-3295,1 50840U 22001AP  24159.33695242  .00000585  00000-0  54858-4 0  9999,2 50840  53.2167 173.7766 0001334  92.9886 267.1258 15.08839152134879,6917.883,95.438,540.671,538.825,0.0
50840.0,STARLINK-3295,PAYLOAD,2024-06-07 17:37:31,15.08837756,0.0001303,53.2164,171.9922,91.3295,268.7847,6.1575e-05,6.92e-06,0.0,0 STARLINK-3295,1 50840U 22001AP  24159.73439388  .00000692  00000-0  61575-4 0  9993,2 50840  53.2164 171.9922 0001303  91.3295 268.7847 15.08837756133646,6917.887,95.438,540.654,538.851,0.0
50840.0,STARLINK-3295,PAYLOAD,2024-06-08 07:56:00,15.08836522,0.0001308,53.2163,169.3167,95.0894,265.0248,7.3315e-05,8.79e-06,0.0,0 STARLINK-3295,1 50840U 22001AP  24160.33055613  .00000879  00000-0  73315-4 0  9998,2 50840  53.2163 169.3167 0001308  95.0894 265.0248 15.08836522133733,6917.891,95.438,540.661,538.851,0.0
50840.0,STARLINK-3295,PAYLOAD,2024-06-08 17:28:18,15.08836472,0.0001297,53.2163,167.5324,93.3303,266.7837,5.893e-05,6.5e-06,0.0,0 STARLINK-3295,1 50840U 22001AP  24160.72799739  .00000650  00000-0  58930-4 0  9998,2 50840  53.2163 167.5324 0001297  93.3303 266.7837 15.08836472135087,6917.891,95.438,540.653,538.859,0.0
50840.0,STARLINK-3295,PAYLOAD,2024-06-09 07:46:47,15.08833068,0.0001352,53.2165,164.8562,88.3898,271.7249,-8.0712e-06,-4.16e-06,0.0,0 STARLINK-3295,1 50840U 22001AP  24161.32416422 -.00000416  00000-0 -80712-5 0  9996,2 50840  53.2165 164.8562 0001352  88.3898 271.7249 15.08833068135179,6917.902,95.438,540.702,538.831,0.0
50840.0,STARLINK-3295,PAYLOAD,2024-06-09 17:19:06,15.08837269,0.0001378,53.2167,163.0718,85.72,274.395,2.359e-05,8.8e-07,0.0,0 STARLINK-3295,1 50840U 22001AP  24161.72160174  .00000088  00000-0  23590-4 0  9993,2 50840  53.2167 163.0718 0001378  85.7200 274.3950 15.08837269133949,6917.889,95.438,540.707,538.8,0.0
50840.0,STARLINK-3295,PAYLOAD,2024-06-10 06:02:11,15.08840135,0.0001348,53.2165,160.693,85.6374,274.4772,6.6795e-05,7.75e-06,0.0,0 STARLINK-3295,1 50840U 22001AP  24162.25151921  .00000775  00000-0  66795-4 0  9999,2 50840  53.2165 160.6930 0001348  85.6374 274.4772 15.08840135135316,6917.88,95.438,540.678,538.812,0.0
